{"fetched_at":"2026-07-08T07:04:11.985Z","source":"https://celestrak.org/NORAD/elements/gp.php?NAME=PLEIADES&FORMAT=JSON","constellation":"pleiades","records":[{"OBJECT_NAME":"PLEIADES 1A","OBJECT_ID":"2011-076F","EPOCH":"2026-07-07T20:34:37.843680","CLASSIFICATION_TYPE":"U","MEAN_MOTION":14.58543868,"ECCENTRICITY":0.0001738,"INCLINATION":98.1966,"RA_OF_ASC_NODE":263.6822,"ARG_OF_PERICENTER":82.579,"MEAN_ANOMALY":51.9706,"EPHEMERIS_TYPE":0,"NORAD_CAT_ID":38012,"ELEMENT_SET_NO":999,"REV_AT_EPOCH":77500,"BSTAR":0.000018634,"MEAN_MOTION_DOT":4.1e-7,"MEAN_MOTION_DDOT":0},{"OBJECT_NAME":"PLEIADES 1B","OBJECT_ID":"2012-068A","EPOCH":"2026-07-07T20:46:34.455648","CLASSIFICATION_TYPE":"U","MEAN_MOTION":14.58573835,"ECCENTRICITY":0.0001631,"INCLINATION":98.1936,"RA_OF_ASC_NODE":263.6325,"ARG_OF_PERICENTER":81.5763,"MEAN_ANOMALY":278.5622,"EPHEMERIS_TYPE":0,"NORAD_CAT_ID":39019,"ELEMENT_SET_NO":999,"REV_AT_EPOCH":72386,"BSTAR":0.000048096,"MEAN_MOTION_DOT":0.00000178,"MEAN_MOTION_DDOT":0}]}
